[
    {
        "CCSDS_OMM_VERS": "3.0",
        "COMMENT": "GENERATED VIA SPACE-TRACK.ORG API",
        "CREATION_DATE": "2025-03-02T18:08:23",
        "ORIGINATOR": "18 SPCS",
        "OBJECT_NAME": "BEIDOU 7",
        "OBJECT_ID": "2010-068A",
        "CENTER_NAME": "EARTH",
        "REF_FRAME": "TEME",
        "TIME_SYSTEM": "UTC",
        "MEAN_ELEMENT_THEORY": "SGP4",
        "EPOCH": "2025-03-02T08:49:05.071584",
        "MEAN_MOTION": "1.00269371",
        "ECCENTRICITY": "0.00389440",
        "INCLINATION": "48.4009",
        "RA_OF_ASC_NODE": "277.6563",
        "ARG_OF_PERICENTER": "211.8911",
        "MEAN_ANOMALY": "271.3611",
        "EPHEMERIS_TYPE": "0",
        "CLASSIFICATION_TYPE": "U",
        "NORAD_CAT_ID": "37256",
        "ELEMENT_SET_NO": "999",
        "REV_AT_EPOCH": "5206",
        "BSTAR": "0.00000000000000",
        "MEAN_MOTION_DOT": "-0.00000176",
        "MEAN_MOTION_DDOT": "0.0000000000000",
        "SEMIMAJOR_AXIS": "42165.409",
        "PERIOD": "1436.131",
        "APOAPSIS": "35951.483",
        "PERIAPSIS": "35623.065",
        "OBJECT_TYPE": "PAYLOAD",
        "RCS_SIZE": "LARGE",
        "COUNTRY_CODE": "PRC",
        "LAUNCH_DATE": "2010-12-17",
        "SITE": "XSC",
        "DECAY_DATE": null,
        "FILE": "4657142",
        "GP_ID": "282083689",
        "TLE_LINE0": "0 BEIDOU 7",
        "TLE_LINE1": "1 37256U 10068A   25061.36741981 -.00000176  00000-0  00000-0 0  9996",
        "TLE_LINE2": "2 37256  48.4009 277.6563 0038944 211.8911 271.3611  1.00269371 52060"
    }
]